ORBCOMM FM15            
1 25418U 98046F   24147.29830800  .00001609  00000+0  59674-3 0  9994
2 25418  44.9958 210.5479 0003442 191.8402 168.2364 14.36024270348584
ORBCOMM FM14            
1 25419U 98046G   24147.91047334  .00001556  00000+0  57654-3 0  9993
2 25419  44.9947 206.7469 0002175 204.3114 325.9263 14.36208092348857
ORBCOMM FM13            
1 25420U 98046H   24147.86203950  .00001481  00000+0  55908-3 0  9994
2 25420  44.9960 211.9407 0003758 165.3519 194.7437 14.35471050348813
ORBCOMM FM21            
1 25475U 98053A   24147.53512086  .00001788  00000+0  66617-3 0  9998
2 25475  45.0093 297.8255 0001055 175.4619 184.6238 14.35393196341653
ORBCOMM FM22            
1 25476U 98053B   24147.78505983  .00001844  00000+0  67781-3 0  9990
2 25476  45.0081 293.8640 0001780 118.5707 241.5319 14.35937901342041
ORBCOMM FM23            
1 25477U 98053C   24147.84123054  .00001499  00000+0  56571-3 0  9994
2 25477  45.0089 298.8012 0001351 127.6375 232.4595 14.35439973342157
